FENGYUN 1C DEB          
1 32453U 99025DBR 17345.59180821  .00000393  00000-0  30199-3 0  9996
2 32453  99.4382 119.4657 0104353 222.6607 196.6359 13.96963505525703
